COSMOS 1933             
1 18958U 88020A   26045.12348132  .00003826  00000+0  18799-3 0  9995
2 18958  82.5115 274.2292 0002727 295.5351  64.5601 15.17774039 46658
SL-3 R/B                
1 19046U 88032B   26045.22689339  .00006671  00000+0  31404-3 0  9994
2 19046  97.5150  28.5731 0024832 319.3439  40.5941 15.19605334 48547
SL-16 R/B               
1 19120U 88039B   26045.23437094  .00000180  00000+0  10761-3 0  9996
2 19120  71.0145 118.1476 0021304   9.9704 350.1839 14.19612603955056
COSMOS 1953             
1 19210U 88050A   26045.31653127  .00010918  00000+0  39715-3 0  9995
2 19210  82.5093 181.7396 0010994 201.6172 158.4604 15.28057549 34213
SL-8 R/B                
1 19257U 88053B   26045.29001492  .00000253  00000+0  90626-4 0  9998
2 19257  74.0486 155.5945 0020587 339.0524  50.9014 14.38901601973233
COSMOS 1975             
1 19573U 88093A   26045.27831914  .00010057  00000+0  37023-3 0  9995
2 19573  82.5222 141.1731 0010331 249.6281 110.3849 15.27664668 15830
SL-14 R/B               
1 19574U 88093B   26045.15747242  .00000475  00000+0  51764-4 0  9995
2 19574  82.5278  64.1405 0022188 114.2941 313.8249 14.85628754997547
SL-16 R/B               
1 19650U 88102B   26044.88903277  .00000254  00000+0  15223-3 0  9996
2 19650  70.9984 201.5715 0012684  40.2148 319.9911 14.16150326923524
INTERCOSMOS 24          
1 20261U 89080A   26045.29190672  .00000552  00000+0  16054-3 0  9999
2 20261  82.6058 119.6353 1187677 347.1652  10.1472 12.59524303663852
SL-14 R/B               
1 20262U 89080C   26044.39022249  .00000508  00000+0  15357-3 0  9990
2 20262  82.5950 188.7839 1229546 240.3085 107.0139 12.50462789657113
DELTA 1 R/B             
1 20323U 89089B   26045.16874227  .00000397  00000+0  10701-3 0  9998
2 20323  97.0722 256.3458 0068633 195.8730 164.0317 14.50643472892323
ARIANE 40 R/B           
1 20443U 90005H   26045.18642709  .00000296  00000+0  10779-3 0  9994
2 20443  98.3136 106.5419 0008879 275.4821  84.5355 14.39854614889428
