CCSDS_OMM_VERS = 2.0
CREATION_DATE  = 
ORIGINATOR     = 

OBJECT_NAME    = COSMOS 1933
OBJECT_ID      = 1988-020A
CENTER_NAME    = EARTH
REF_FRAME      = TEME
TIME_SYSTEM    = UTC
MEAN_ELEMENT_THEORY = SGP/SGP4

EPOCH          = 2026-02-14T02:57:48.786048
MEAN_MOTION    = 15.17774039
ECCENTRICITY   = .00027274
INCLINATION    = 82.5115
RA_OF_ASC_NODE = 274.2292
ARG_OF_PERICENTER = 295.5351
MEAN_ANOMALY   = 64.5601

EPHEMERIS_TYPE = 0
CLASSIFICATION_TYPE = U
NORAD_CAT_ID   = 18958
ELEMENT_SET_NO = 999
REV_AT_EPOCH   = 4665
BSTAR          = .18799117E-3
MEAN_MOTION_DOT = .3826E-4
MEAN_MOTION_DDOT = 0

CCSDS_OMM_VERS = 2.0
CREATION_DATE  = 
ORIGINATOR     = 

OBJECT_NAME    = SL-3 R/B
OBJECT_ID      = 1988-032B
CENTER_NAME    = EARTH
REF_FRAME      = TEME
TIME_SYSTEM    = UTC
MEAN_ELEMENT_THEORY = SGP/SGP4

EPOCH          = 2026-02-14T05:26:43.588896
MEAN_MOTION    = 15.19605334
ECCENTRICITY   = .0024832
INCLINATION    = 97.5150
RA_OF_ASC_NODE = 28.5731
ARG_OF_PERICENTER = 319.3439
MEAN_ANOMALY   = 40.5941

EPHEMERIS_TYPE = 0
CLASSIFICATION_TYPE = U
NORAD_CAT_ID   = 19046
ELEMENT_SET_NO = 999
REV_AT_EPOCH   = 4854
BSTAR          = .31404167E-3
MEAN_MOTION_DOT = .6671E-4
MEAN_MOTION_DDOT = 0

CCSDS_OMM_VERS = 2.0
CREATION_DATE  = 
ORIGINATOR     = 

OBJECT_NAME    = SL-16 R/B
OBJECT_ID      = 1988-039B
CENTER_NAME    = EARTH
REF_FRAME      = TEME
TIME_SYSTEM    = UTC
MEAN_ELEMENT_THEORY = SGP/SGP4

EPOCH          = 2026-02-14T05:37:29.649216
MEAN_MOTION    = 14.19612603
ECCENTRICITY   = .00213042
INCLINATION    = 71.0145
RA_OF_ASC_NODE = 118.1476
ARG_OF_PERICENTER = 9.9704
MEAN_ANOMALY   = 350.1839

EPHEMERIS_TYPE = 0
CLASSIFICATION_TYPE = U
NORAD_CAT_ID   = 19120
ELEMENT_SET_NO = 999
REV_AT_EPOCH   = 95505
BSTAR          = .10760838E-3
MEAN_MOTION_DOT = .18E-5
MEAN_MOTION_DDOT = 0

CCSDS_OMM_VERS = 2.0
CREATION_DATE  = 
ORIGINATOR     = 

OBJECT_NAME    = COSMOS 1953
OBJECT_ID      = 1988-050A
CENTER_NAME    = EARTH
REF_FRAME      = TEME
TIME_SYSTEM    = UTC
MEAN_ELEMENT_THEORY = SGP/SGP4

EPOCH          = 2026-02-14T07:35:48.301728
MEAN_MOTION    = 15.28057549
ECCENTRICITY   = .00109945
INCLINATION    = 82.5093
RA_OF_ASC_NODE = 181.7396
ARG_OF_PERICENTER = 201.6172
MEAN_ANOMALY   = 158.4604

EPHEMERIS_TYPE = 0
CLASSIFICATION_TYPE = U
NORAD_CAT_ID   = 19210
ELEMENT_SET_NO = 999
REV_AT_EPOCH   = 3421
BSTAR          = .39714614E-3
MEAN_MOTION_DOT = .10918E-3
MEAN_MOTION_DDOT = 0

CCSDS_OMM_VERS = 2.0
CREATION_DATE  = 
ORIGINATOR     = 

OBJECT_NAME    = SL-8 R/B
OBJECT_ID      = 1988-053B
CENTER_NAME    = EARTH
REF_FRAME      = TEME
TIME_SYSTEM    = UTC
MEAN_ELEMENT_THEORY = SGP/SGP4

EPOCH          = 2026-02-14T06:57:37.289088
MEAN_MOTION    = 14.38901601
ECCENTRICITY   = .00205879
INCLINATION    = 74.0486
RA_OF_ASC_NODE = 155.5945
ARG_OF_PERICENTER = 339.0524
MEAN_ANOMALY   = 50.9014

EPHEMERIS_TYPE = 0
CLASSIFICATION_TYPE = U
NORAD_CAT_ID   = 19257
ELEMENT_SET_NO = 999
REV_AT_EPOCH   = 97323
BSTAR          = .90625879E-4
MEAN_MOTION_DOT = .253E-5
MEAN_MOTION_DDOT = 0

CCSDS_OMM_VERS = 2.0
CREATION_DATE  = 
ORIGINATOR     = 

OBJECT_NAME    = COSMOS 1975
OBJECT_ID      = 1988-093A
CENTER_NAME    = EARTH
REF_FRAME      = TEME
TIME_SYSTEM    = UTC
MEAN_ELEMENT_THEORY = SGP/SGP4

EPOCH          = 2026-02-14T06:40:46.773696
MEAN_MOTION    = 15.27664668
ECCENTRICITY   = .00103319
INCLINATION    = 82.5222
RA_OF_ASC_NODE = 141.1731
ARG_OF_PERICENTER = 249.6281
MEAN_ANOMALY   = 110.3849

EPHEMERIS_TYPE = 0
CLASSIFICATION_TYPE = U
NORAD_CAT_ID   = 19573
ELEMENT_SET_NO = 999
REV_AT_EPOCH   = 1583
BSTAR          = .37022549E-3
MEAN_MOTION_DOT = .10057E-3
MEAN_MOTION_DDOT = 0

CCSDS_OMM_VERS = 2.0
CREATION_DATE  = 
ORIGINATOR     = 

OBJECT_NAME    = SL-14 R/B
OBJECT_ID      = 1988-093B
CENTER_NAME    = EARTH
REF_FRAME      = TEME
TIME_SYSTEM    = UTC
MEAN_ELEMENT_THEORY = SGP/SGP4

EPOCH          = 2026-02-14T03:46:45.617088
MEAN_MOTION    = 14.85628754
ECCENTRICITY   = .00221884
INCLINATION    = 82.5278
RA_OF_ASC_NODE = 64.1405
ARG_OF_PERICENTER = 114.2941
MEAN_ANOMALY   = 313.8249

EPHEMERIS_TYPE = 0
CLASSIFICATION_TYPE = U
NORAD_CAT_ID   = 19574
ELEMENT_SET_NO = 999
REV_AT_EPOCH   = 99754
BSTAR          = .51763847E-4
MEAN_MOTION_DOT = .475E-5
MEAN_MOTION_DDOT = 0

CCSDS_OMM_VERS = 2.0
CREATION_DATE  = 
ORIGINATOR     = 

OBJECT_NAME    = SL-16 R/B
OBJECT_ID      = 1988-102B
CENTER_NAME    = EARTH
REF_FRAME      = TEME
TIME_SYSTEM    = UTC
MEAN_ELEMENT_THEORY = SGP/SGP4

EPOCH          = 2026-02-13T21:20:12.431328
MEAN_MOTION    = 14.16150326
ECCENTRICITY   = .0012684
INCLINATION    = 70.9984
RA_OF_ASC_NODE = 201.5715
ARG_OF_PERICENTER = 40.2148
MEAN_ANOMALY   = 319.9911

EPHEMERIS_TYPE = 0
CLASSIFICATION_TYPE = U
NORAD_CAT_ID   = 19650
ELEMENT_SET_NO = 999
REV_AT_EPOCH   = 92352
BSTAR          = .15223248E-3
MEAN_MOTION_DOT = .254E-5
MEAN_MOTION_DDOT = 0

CCSDS_OMM_VERS = 2.0
CREATION_DATE  = 
ORIGINATOR     = 

OBJECT_NAME    = INTERCOSMOS 24
OBJECT_ID      = 1989-080A
CENTER_NAME    = EARTH
REF_FRAME      = TEME
TIME_SYSTEM    = UTC
MEAN_ELEMENT_THEORY = SGP/SGP4

EPOCH          = 2026-02-14T07:00:20.740608
MEAN_MOTION    = 12.59524303
ECCENTRICITY   = .11876779
INCLINATION    = 82.6058
RA_OF_ASC_NODE = 119.6353
ARG_OF_PERICENTER = 347.1652
MEAN_ANOMALY   = 10.1472

EPHEMERIS_TYPE = 0
CLASSIFICATION_TYPE = U
NORAD_CAT_ID   = 20261
ELEMENT_SET_NO = 999
REV_AT_EPOCH   = 66385
BSTAR          = .16053603E-3
MEAN_MOTION_DOT = .552E-5
MEAN_MOTION_DDOT = 0

CCSDS_OMM_VERS = 2.0
CREATION_DATE  = 
ORIGINATOR     = 

OBJECT_NAME    = SL-14 R/B
OBJECT_ID      = 1989-080C
CENTER_NAME    = EARTH
REF_FRAME      = TEME
TIME_SYSTEM    = UTC
MEAN_ELEMENT_THEORY = SGP/SGP4

EPOCH          = 2026-02-13T09:21:55.223136
MEAN_MOTION    = 12.50462789
ECCENTRICITY   = .12295468
INCLINATION    = 82.5950
RA_OF_ASC_NODE = 188.7839
ARG_OF_PERICENTER = 240.3085
MEAN_ANOMALY   = 107.0139

EPHEMERIS_TYPE = 0
CLASSIFICATION_TYPE = U
NORAD_CAT_ID   = 20262
ELEMENT_SET_NO = 999
REV_AT_EPOCH   = 65711
BSTAR          = .15356721E-3
MEAN_MOTION_DOT = .508E-5
MEAN_MOTION_DDOT = 0

CCSDS_OMM_VERS = 2.0
CREATION_DATE  = 
ORIGINATOR     = 

OBJECT_NAME    = DELTA 1 R/B
OBJECT_ID      = 1989-089B
CENTER_NAME    = EARTH
REF_FRAME      = TEME
TIME_SYSTEM    = UTC
MEAN_ELEMENT_THEORY = SGP/SGP4

EPOCH          = 2026-02-14T04:02:59.332128
MEAN_MOTION    = 14.50643472
ECCENTRICITY   = .00686336
INCLINATION    = 97.0722
RA_OF_ASC_NODE = 256.3458
ARG_OF_PERICENTER = 195.8730
MEAN_ANOMALY   = 164.0317

EPHEMERIS_TYPE = 0
CLASSIFICATION_TYPE = U
NORAD_CAT_ID   = 20323
ELEMENT_SET_NO = 999
REV_AT_EPOCH   = 89232
BSTAR          = .10701451E-3
MEAN_MOTION_DOT = .397E-5
MEAN_MOTION_DDOT = 0

CCSDS_OMM_VERS = 2.0
CREATION_DATE  = 
ORIGINATOR     = 

OBJECT_NAME    = ARIANE 40 R/B
OBJECT_ID      = 1990-005H
CENTER_NAME    = EARTH
REF_FRAME      = TEME
TIME_SYSTEM    = UTC
MEAN_ELEMENT_THEORY = SGP/SGP4

EPOCH          = 2026-02-14T04:28:27.300576
MEAN_MOTION    = 14.39854614
ECCENTRICITY   = .00088794
INCLINATION    = 98.3136
RA_OF_ASC_NODE = 106.5419
ARG_OF_PERICENTER = 275.4821
MEAN_ANOMALY   = 84.5355

EPHEMERIS_TYPE = 0
CLASSIFICATION_TYPE = U
NORAD_CAT_ID   = 20443
ELEMENT_SET_NO = 999
REV_AT_EPOCH   = 88942
BSTAR          = .10779396E-3
MEAN_MOTION_DOT = .296E-5
MEAN_MOTION_DDOT = 0

